[{"OBJECT_NAME":"STARLINK-1993","OBJECT_ID":"2021-009AS","EPOCH":"2026-03-09T22:34:43.517280","MEAN_MOTION":15.68612589,"ECCENTRICITY":0.00017457,"INCLINATION":53.0469,"RA_OF_ASC_NODE":338.0743,"ARG_OF_PERICENTER":302.7069,"MEAN_ANOMALY":57.3778,"EPHEMERIS_TYPE":0,"CLASSIFICATION_TYPE":"U","NORAD_CAT_ID":47588,"ELEMENT_SET_NO":999,"REV_AT_EPOCH":28143,"BSTAR":0.0010228331,"MEAN_MOTION_DOT":0.00119587,"MEAN_MOTION_DDOT":0},{"OBJECT_NAME":"STARLINK-11454 [DTC]","OBJECT_ID":"2024-217C","EPOCH":"2026-03-09T09:12:18.999072","MEAN_MOTION":15.69744147,"ECCENTRICITY":0.00017949,"INCLINATION":53.157,"RA_OF_ASC_NODE":72.899,"ARG_OF_PERICENTER":58.6565,"MEAN_ANOMALY":301.4629,"EPHEMERIS_TYPE":0,"CLASSIFICATION_TYPE":"U","NORAD_CAT_ID":62059,"ELEMENT_SET_NO":999,"REV_AT_EPOCH":7512,"BSTAR":0.0013720423,"MEAN_MOTION_DOT":0.00169308,"MEAN_MOTION_DDOT":0}]
